{
  "slug": "norad-68369-rassvet-3-no-10-current-orbital-elemen-7ee253b6",
  "query": "NORAD 68369 Rassvet-3 No 10 current orbital elements perigee June 2026",
  "answer": "Now I have a comprehensive picture. Let me compile the final research report.\n\n---\n\n## NORAD 68369 — RASSVET-3 No 10 (2026-061K): Current Orbital Elements & Perigee, June 2026\n\n### Satellite Identity\n\n| Parameter | Value |\n|---|---|\n| **NORAD Catalog ID** | 68369 |\n| **International Designator** | 2026-061K |\n| **Name** | RASSVET-3 10 (Object 10) |\n| **Operator** | Byuro 1440 (Bureau 1440) |\n| **Mass** | ~370 kg |\n| **Type** | LEO broadband communication satellite |\n| **Launch Date** | 2026-03-23 17:24 UTC |\n| **Launch Vehicle** | Soyuz-2.1b with Fregat-M upper stage |\n| **Launch Site** | Plesetsk Cosmodrome, LC-43/4, Russia |\n| **Status** | Operational (in orbit, maintaining altitude) |\n\n### Most Current TLE (Epoch: June 14, 2026 22:37:40 UTC)\n\n```\n1 68369U 26061K   26165.94282494  .00116972  41251-5  25961-3 0  9999\n2 68369  82.2897  14.0549 0009892 144.2136 215.9805 15.97751051 13243\n```\n\n**Source:** N2YO.com / AFSPC (accessed June 15, 2026)\n\n### Derived Orbital Elements (from June 14 TLE)\n\n| Element | Value |\n|---|---|\n| **Perigee altitude** | **~274 km** |\n| **Apogee altitude** | **~287 km** |\n| **Semi-major axis** | 6,658.8 km |\n| **Eccentricity** | 0.0009892 |\n| **Inclination** | 82.2897° |\n| **RAAN** | 14.0549° |\n| **Argument of Perigee** | 144.2136° |\n| **Mean Anomaly** | 215.9805° |\n| **Mean Motion** | 15.97751051 rev/day |\n| **Orbital Period** | ~90.13 minutes |\n| **Revolution at Epoch** | 1,324 |\n| **B\\* drag term** | 0.00025961 (1/Earth radii) |\n| **ṅ (mean motion derivative)** | +0.00116972 rev/day² |\n\n### Perigee Evolution Over Time\n\n| Date (approx.) | Perigee (km) | Apogee (km) | Period (min) | Source |\n|---|---|---|---|---|\n| ~Mar 31, 2026 (initial catalog) | ~288 | ~324 | 90.64 | russianspaceweb.com |\n| ~Apr 29, 2026 (TLE epoch) | ~286 | ~310 | 90.48 | N2YO (older TLE) |\n| Late Apr/early May (parsec.ro) | ~279 | ~297 | 90.27 | parsec.ro |\n| **Jun 14, 2026 (latest TLE)** | **~274** | **~287** | **90.13** | **N2YO (current TLE)** |\n\n### Orbital Decay Trajectory\n\n- **Perigee decay rate:** ~0.26 km/day (averaged April 29 → June 14)\n- **Apogee decay rate:** ~0.50 km/day (same period)\n- **SMA decay rate:** ~0.38 km/day\n- The orbit is circularizing as it decays (eccentricity dropped from 0.0018431 to 0.0009892 over 46 days).\n- The high n-dot value (+0.00117 rev/day²) and elevated B* confirm significant atmospheric drag.\n\n### Predicted Reentry\n\n- **Sonik.space** (computed ~April 29, 2026) predicted reentry around **September 4, 2026**.\n- Given ongoing decay, this remains plausible but depends on whether the satellite continues station-keeping maneuvers.\n\n### Constellation Context\n\nRASSVET-3 10 is one of 16 Rassvet-3 satellites launched together on March 23, 2026, as Russia's first operational broadband LEO constellation batch (often called \"Russian Starlink\"). As of early June 2026:\n\n- **1 satellite lost:** Object 4 (NORAD 68363) reentered ~June 6, 2026, having never maneuvered.\n- **6 satellites actively climbing** to higher orbits (gaining 40-50 km).\n- **8 satellites (including No. 10) maintaining altitude** via station-keeping against natural decay.\n- **1 satellite** (Object 10 / NORAD 68369) is among those maintaining altitude but **not** actively raising orbit — it is performing the minimum maneuvers needed to counteract drag, which explains its continued slow altitude loss despite being operational.\n\n### Key Caveat on Data Sources\n\n- The N2YO **displayed** parameters (293 km perigee, 317.6 km apogee) on the satellite page are from a **cached earlier snapshot** (~late April). The **TLE itself** on that same page has epoch June 14, 2026, and yields the more current values (~274 km perigee).\n- Orbital elements change continuously due to atmospheric drag; the June 14 TLE is valid for SGP4 propagation near that epoch only.",
  "sources": [
    {
      "url": "https://www.n2yo.com/satellite/?s=68369",
      "title": "RASSVET-3 10 Satellite details 2026-061K NORAD 68369",
      "domain": "n2yo.com",
      "accessed_at": "2026-06-15T00:00:00Z",
      "snippet": "TLE epoch 26165.94282494 (June 14, 2026). Perigee ~274 km, Apogee ~287 km derived from TLE. N2YO displayed cached values of 293 km perigee from older snapshot."
    },
    {
      "url": "https://www.russianspaceweb.com/spacecraft-2026-0323.html",
      "title": "An unannounced launch from Plesetsk delivers Russian Starlink",
      "domain": "russianspaceweb.com",
      "accessed_at": "2026-06-15T00:00:00Z",
      "snippet": "Initial orbit ~324x288 km at 82.30°. As of early June 2026, Object 10 is maintaining altitude via station-keeping. Object 4 (68363) reentered June 6."
    },
    {
      "url": "https://parsec.ro/l/2026-061.html",
      "title": "2026-061 launch catalog",
      "domain": "parsec.ro",
      "accessed_at": "2026-06-15T00:00:00Z",
      "snippet": "RASSVET-3 10: period 90.27 min, apogee 297 km, perigee 279 km, inclination 82.29°"
    },
    {
      "url": "https://en.sonik.space/decay/",
      "title": "SONIKS - Satellites decay predictions",
      "domain": "sonik.space",
      "accessed_at": "2026-06-15T00:00:00Z",
      "snippet": "RASSVET-3 10 (68369): Apogee 307.85 km, Perigee 283.30 km, predicted deorbiting Sep 4, 2026"
    },
    {
      "url": "https://space.skyrocket.de/doc_sdat/rassvet-3.htm",
      "title": "Rassvet-3 satellites - Gunter's Space Page",
      "domain": "space.skyrocket.de",
      "accessed_at": "2026-06-15T00:00:00Z",
      "snippet": "Mass 370 kg, operated by Byuro 1440 for broadband LEO constellation. Launched 2026-03-23 from Plesetsk on Soyuz-2-1b."
    },
    {
      "url": "https://defence-blog.com/russias-answer-to-starlink-just-lost-its-first-satellite/",
      "title": "Russia's answer to Starlink just lost its first satellite",
      "domain": "defence-blog.com",
      "accessed_at": "2026-06-15T00:00:00Z",
      "snippet": "Object 4 (NORAD 68363) reentered ~June 6, 2026. Six satellites raising orbits, eight maintaining altitude."
    },
    {
      "url": "https://meduza.io/en/news/2026/06/09/russia-loses-one-of-the-satellites-in-its-rassvet-constellation-billed-as-a-starlink-rival",
      "title": "Russia loses one of the satellites in its Rassvet constellation",
      "domain": "meduza.io",
      "accessed_at": "2026-06-15T00:00:00Z",
      "snippet": "Bureau 1440 confirmed loss of one satellite; 15 remain operational."
    }
  ],
  "key_facts": [
    "NORAD 68369 (RASSVET-3 10, 2026-061K) latest TLE epoch is June 14, 2026 22:37:40 UTC",
    "Current perigee altitude: ~274 km (derived from June 14 TLE)",
    "Current apogee altitude: ~287 km (derived from June 14 TLE)",
    "Eccentricity: 0.0009892; Inclination: 82.2897°; Period: ~90.13 minutes",
    "Mean motion: 15.97751051 rev/day, increasing at +0.00117 rev/day² (orbit decaying)",
    "Semi-major axis: 6,658.8 km; B* drag term: 0.00025961",
    "Satellite was launched March 23, 2026 from Plesetsk on Soyuz-2.1b/Fregat-M with 15 other Rassvet-3 satellites",
    "Initial orbit (~March 31): ~288 km perigee, ~324 km apogee",
    "Perigee has dropped ~14 km since initial cataloging; apogee dropped ~37 km",
    "Average decay rate (Apr 29–Jun 14): perigee ~0.26 km/day, apogee ~0.50 km/day",
    "Satellite is operational, performing station-keeping maneuvers but NOT actively raising orbit",
    "Sonik.space predicted reentry around September 4, 2026 (based on April 29 data)",
    "Sibling Object 4 (NORAD 68363) reentered ~June 6, 2026 after never maneuvering",
    "As of early June 2026: 6 Rassvet satellites climbing, 8 maintaining altitude (incl. No. 10), 1 lost"
  ],
  "data_points": [
    {
      "metric": "Perigee altitude (June 14 TLE)",
      "value": 274.07,
      "unit": "km",
      "as_of": "2026-06-14",
      "source_url": "https://www.n2yo.com/satellite/?s=68369"
    },
    {
      "metric": "Apogee altitude (June 14 TLE)",
      "value": 287.25,
      "unit": "km",
      "as_of": "2026-06-14",
      "source_url": "https://www.n2yo.com/satellite/?s=68369"
    },
    {
      "metric": "Semi-major axis",
      "value": 6658.8,
      "unit": "km",
      "as_of": "2026-06-14",
      "source_url": "https://www.n2yo.com/satellite/?s=68369"
    },
    {
      "metric": "Eccentricity",
      "value": 0.0009892,
      "unit": "dimensionless",
      "as_of": "2026-06-14",
      "source_url": "https://www.n2yo.com/satellite/?s=68369"
    },
    {
      "metric": "Inclination",
      "value": 82.2897,
      "unit": "degrees",
      "as_of": "2026-06-14",
      "source_url": "https://www.n2yo.com/satellite/?s=68369"
    },
    {
      "metric": "Mean motion",
      "value": 15.97751051,
      "unit": "rev/day",
      "as_of": "2026-06-14",
      "source_url": "https://www.n2yo.com/satellite/?s=68369"
    },
    {
      "metric": "Orbital period",
      "value": 90.13,
      "unit": "minutes",
      "as_of": "2026-06-14",
      "source_url": "https://www.n2yo.com/satellite/?s=68369"
    },
    {
      "metric": "Mean motion derivative (n-dot)",
      "value": 0.00116972,
      "unit": "rev/day²",
      "as_of": "2026-06-14",
      "source_url": "https://www.n2yo.com/satellite/?s=68369"
    },
    {
      "metric": "B* drag term",
      "value": 0.00025961,
      "unit": "1/Earth radii",
      "as_of": "2026-06-14",
      "source_url": "https://www.n2yo.com/satellite/?s=68369"
    },
    {
      "metric": "Perigee altitude (initial catalog)",
      "value": 288.0,
      "unit": "km",
      "as_of": "2026-03-31",
      "source_url": "https://www.russianspaceweb.com/spacecraft-2026-0323.html"
    },
    {
      "metric": "Apogee altitude (initial catalog)",
      "value": 324.0,
      "unit": "km",
      "as_of": "2026-03-31",
      "source_url": "https://www.russianspaceweb.com/spacecraft-2026-0323.html"
    },
    {
      "metric": "Perigee altitude (April 29 TLE)",
      "value": 285.87,
      "unit": "km",
      "as_of": "2026-04-29",
      "source_url": "https://www.n2yo.com/satellite/?s=68369"
    },
    {
      "metric": "Apogee altitude (April 29 TLE)",
      "value": 310.48,
      "unit": "km",
      "as_of": "2026-04-29",
      "source_url": "https://www.n2yo.com/satellite/?s=68369"
    },
    {
      "metric": "Perigee decay rate (Apr 29 - Jun 14)",
      "value": 0.26,
      "unit": "km/day",
      "as_of": "2026-06-14",
      "source_url": "https://www.n2yo.com/satellite/?s=68369"
    },
    {
      "metric": "Apogee decay rate (Apr 29 - Jun 14)",
      "value": 0.5,
      "unit": "km/day",
      "as_of": "2026-06-14",
      "source_url": "https://www.n2yo.com/satellite/?s=68369"
    },
    {
      "metric": "Predicted reentry date (Sonik.space)",
      "value": 248.0,
      "unit": "day of year 2026 (~Sep 4)",
      "as_of": "2026-04-29",
      "source_url": "https://en.sonik.space/decay/"
    },
    {
      "metric": "Satellite mass",
      "value": 370.0,
      "unit": "kg",
      "as_of": "2026-04-03",
      "source_url": "https://space.skyrocket.de/doc_sdat/rassvet-3.htm"
    },
    {
      "metric": "Revolution number at epoch",
      "value": 1324.0,
      "unit": "revolutions",
      "as_of": "2026-06-14",
      "source_url": "https://www.n2yo.com/satellite/?s=68369"
    }
  ],
  "created_at": "2026-06-15T03:33:07.090476Z",
  "updated_at": "2026-06-15T03:33:07.090476Z",
  "stale_after": "2026-06-15T09:33:07.090476Z",
  "resolvable_after": null,
  "state": "fresh",
  "superseded_by": null,
  "revision_history": [],
  "session_id": "72de2624-f5d3-4316-87b6-9ac4d5562c2b",
  "follow_up_count": 0
}